#aV2006  9 28  0  0   .00000000      96 DD+AD WGS84 FIT  NGA
## 1394 345600.00000000   900.00000000 54006  .0000000000000
+   29     1  2  3  4  5  6  7  8  9 10 11 13 14 15 16 17 18
+         19 20 21 22 23 24 25 26 27 28 29 30  0  0  0  0  0
+          0  0  0  0  0  0  0  0  0  0  0  0  0  0  0  0  0
+          0  0  0  0  0  0  0  0  0  0  0  0  0  0  0  0  0
+          0  0  0  0  0  0  0  0  0  0  0  0  0  0  0  0  0
++         0  0  0  0  0  0  0  0  0  0  0  0  0  0  0  0  0
++         0  0  0  0  0  0  0  0  0  0  0  0  0  0  0  0  0
++         0  0  0  0  0  0  0  0  0  0  0  0  0  0  0  0  0
++         0  0  0  0  0  0  0  0  0  0  0  0  0  0  0  0  0
++         0  0  0  0  0  0  0  0  0  0  0  0  0  0  0  0  0
%c cc cc ccc ccc cccc cccc cccc cccc ccccc ccccc ccccc ccccc
%c cc cc ccc ccc cccc cccc cccc cccc ccccc ccccc ccccc ccccc
%f  0.0000000  0.000000000  0.00000000000  0.000000000000000
%f  0.0000000  0.000000000  0.00000000000  0.000000000000000
%i    0    0    0    0      0      0      0      0         0
%i    0    0    0    0      0      0      0      0         0
/*      NGA, ST. LOUIS,MO.                                  
/*   EPHEMERIS COMPUTED FROM  3 DAYS OF DATA                
/* CCCCCCCCCCCCCCCCCCCCCCCCCCCCCCCCCCCCCCCCCCCCCCCCCCCCCCCCC
/* CCCCCCCCCCCCCCCCCCCCCCCCCCCCCCCCCCCCCCCCCCCCCCCCCCCCCCCCC
*  2006  9 28  2  0   .00000000                                                 
P  1  -1973.300708  15441.879822  21708.559089     79.237545                    
V  1 -26077.763098   7110.789239  -7559.757861       .021124                    
P  2  -8901.482998 -20878.512485  13742.565745     39.272888                    
V  2  14955.799132   9922.230728  24108.367962       .038157                    
P  3   4171.141091  15609.240034 -21240.309425    186.327413                    
V  3 -24615.562419  10397.405779   3154.464066       .714766                    
P  4   4486.334335 -15953.229892  20642.992510    316.404340                    
V  4  20281.816024  16982.046097   9049.198089       .054133                    
P  5 -13642.947821 -10349.965661  20118.601021    354.346280                    
V  5   4108.411068 -25782.432781 -10204.068194       .083822                    
P  6 -25531.393954   6208.293833   4287.733070    590.240153                    
V  6   3651.613657  -5130.421832  30480.041615      -.057424                    
P  7 -13375.258315  17247.268180 -14860.369049    521.438428                    
V  7 -19052.907705   4898.901225  22237.060932      -.049730                    
P  8  12467.841941  -8689.518417 -21952.114760    -81.180216                    
V  8  19775.061822  19056.157431   3295.290782      -.013085                    
P  9 -21046.876067 -16359.860411    867.491288     37.925117                    
V  9    253.910534  -3129.560530 -31598.111664       .014943                    
P 10  -2175.854939 -24023.223696 -10853.949621     90.301884                    
V 10   5302.261391 -12878.437526  27985.476761       .004875                    
P 11  23612.828511  12038.251350   3182.386742    352.469274                    
V 11   1047.551907   6063.660741 -29730.379447       .018877                    
P 13  25686.453200  -6145.543163   2504.936843     98.247421                    
V 13  -2615.348280   2693.837136  32276.876677       .034391                    
P 14 -17641.578622  14824.699090  13216.390082     -4.669191                    
V 14 -16342.191665   3549.221051 -26004.990802       .008017                    
P 15 -11948.218518   9790.562444 -21753.872745     -6.439633                    
V 15 -19132.183765 -19485.909584   1325.644169      -.051316                    
P 16   -405.838560  25519.334636  -7049.446094     77.043847                    
V 16  -4555.497598   8315.437054  30154.350599       .034195                    
P 17  17854.904806 -15144.582356  12438.140835     94.506067                    
V 17  15785.208839  -2746.486322 -26096.030221      -.010600                    
P 18 -15870.495335  10454.404332 -18296.578113   -249.888283                    
V 18   3914.041217 -23358.063171 -16948.226290      -.007995                    
P 19  14379.443734  10428.544576 -19665.064237     19.420242                    
V 19 -23998.406551   7728.499640 -13304.711090       .033141                    
P 20  14332.285520   5873.548371  21490.382377    -22.306895                    
V 20  -5489.076906  26960.345961  -3665.221737       .001804                    
P 21 -18095.592801   2309.342565 -19394.028206     54.642105                    
V 21 -17121.236893 -17858.441341  13243.060025       .017661                    
P 22 -11920.454416  22036.261636  -8619.890144    137.632795                    
V 22      4.419654 -11541.748845 -28994.439396       .029847                    
P 23  23082.292337   1687.676872  13112.296575    138.195156                    
V 23 -15207.400142   7181.537196  25484.172648       .003275                    
P 24   8456.867034 -13075.871074  21727.328906     39.465342                    
V 24  19698.310267  18593.656162   3839.085676       .030721                    
P 25   2908.424660  18693.972888  18981.248030    353.860564                    
V 25 -19753.267216 -12528.011253  15843.489391       .198748                    
P 26 -13467.218338 -10269.575344 -21016.354698   -271.414763                    
V 26  24328.246733  -7747.134749 -11482.827885      -.150147                    
P 27  19431.820610   -524.929860 -17622.107285     70.046386                    
V 27  17563.254585  15704.621274  17972.948881       .019084                    
P 28  12982.060255 -19348.919545 -12119.329551     17.752428                    
V 28   -858.464262  16189.031319 -26473.585423      -.009378                    
P 29  -9905.479860 -11617.034084 -21548.445436     -1.922650                    
V 29  26170.905486  -9319.163257  -6641.614381       .531858                    
P 30 -15792.260728   4578.302744  20539.349158     11.429599                    
V 30   3359.179732 -26650.776634   8515.761192       .010729                    
EOF
